start=new Date('2022-07-23T00:00:00.000Z').valueOf();
sats=[{"REV_AT_EPOCH":"130","EPOCH":"2022-07-22T22:00:00.999936","OBJECT_ID":"2022-029W","RA_OF_ASC_NODE":"270.7448","MEAN_ELEMENT_THEORY":"SGP4","OBJECT_NAME":"STARLINK-3698","LAUNCH_DATE":"2022-03-19","DECAY_DATE":null,"PERIAPSIS":"538.542","SITE":"AFETR","TIME_SYSTEM":"UTC","CLASSIFICATION_TYPE":"U","ELEMENT_SET_NO":"999","ECCENTRICITY":"0.00017250","GP_ID":"208671861","FILE":"3519932","APOAPSIS":"540.929","CENTER_NAME":"EARTH","MEAN_MOTION_DOT":"-0.00006430","COUNTRY_CODE":"US","BSTAR":"-0.00038621000000","MEAN_MOTION_DDOT":"0.0000000000000","EPHEMERIS_TYPE":"0","NORAD_CAT_ID":"52108","MEAN_MOTION":"15.08843219","RCS_SIZE":"LARGE","MEAN_ANOMALY":"19.3336","REF_FRAME":"TEME","ARG_OF_PERICENTER":"44.5970","INCLINATION":"53.2137","PERIOD":"95.437","SEMIMAJOR_AXIS":"6917.871","OBJECT_TYPE":"PAYLOAD","TLE_LINE1":"1 52108U 22029W   22203.91667824 -.00006430  00000-0 -38621-3 0  9991","TLE_LINE2":"2 52108  53.2137 270.7448 0001725  44.5970  19.3336 15.08843219  1305"},{"REF_FRAME":"TEME","ARG_OF_PERICENTER":"44.3478","SEMIMAJOR_AXIS":"6917.852","PERIOD":"95.437","INCLINATION":"53.2132","OBJECT_TYPE":"PAYLOAD","TLE_LINE2":"2 52110  53.2132 270.7411 0001849  44.3478  39.5730 15.08849160  1304","TLE_LINE1":"1 52110U 22029Y   22203.91667824 -.00006196  00000-0 -37142-3 0  9990","COUNTRY_CODE":"US","BSTAR":"-0.00037142000000","CENTER_NAME":"EARTH","MEAN_MOTION_DOT":"-0.00006196","EPHEMERIS_TYPE":"0","NORAD_CAT_ID":"52110","MEAN_MOTION_DDOT":"0.0000000000000","MEAN_MOTION":"15.08849160","RCS_SIZE":"LARGE","MEAN_ANOMALY":"39.5730","PERIAPSIS":"538.438","SITE":"AFETR","TIME_SYSTEM":"UTC","ELEMENT_SET_NO":"999","CLASSIFICATION_TYPE":"U","ECCENTRICITY":"0.00018490","GP_ID":"208672612","FILE":"3519932","APOAPSIS":"540.997","OBJECT_ID":"2022-029Y","RA_OF_ASC_NODE":"270.7411","REV_AT_EPOCH":"130","EPOCH":"2022-07-22T22:00:00.999936","MEAN_ELEMENT_THEORY":"SGP4","OBJECT_NAME":"STARLINK-3687","LAUNCH_DATE":"2022-03-19","DECAY_DATE":null},{"REF_FRAME":"TEME","ARG_OF_PERICENTER":"42.8844","PERIOD":"95.437","INCLINATION":"53.2156","SEMIMAJOR_AXIS":"6917.839","OBJECT_TYPE":"PAYLOAD","TLE_LINE2":"2 52111  53.2156 270.7368 0001699  42.8844 121.0565 15.08853456  1301","TLE_LINE1":"1 52111U 22029Z   22203.91667824 -.00007103  00000-0 -42842-3 0  9993","CENTER_NAME":"EARTH","MEAN_MOTION_DOT":"-0.00007103","COUNTRY_CODE":"US","BSTAR":"-0.00042842000000","MEAN_MOTION_DDOT":"0.0000000000000","EPHEMERIS_TYPE":"0","NORAD_CAT_ID":"52111","MEAN_MOTION":"15.08853456","RCS_SIZE":"LARGE","MEAN_ANOMALY":"121.0565","PERIAPSIS":"538.529","SITE":"AFETR","TIME_SYSTEM":"UTC","ELEMENT_SET_NO":"999","CLASSIFICATION_TYPE":"U","GP_ID":"208672344","ECCENTRICITY":"0.00016990","FILE":"3519932","APOAPSIS":"540.880","REV_AT_EPOCH":"130","EPOCH":"2022-07-22T22:00:00.999936","OBJECT_ID":"2022-029Z","RA_OF_ASC_NODE":"270.7368","MEAN_ELEMENT_THEORY":"SGP4","OBJECT_NAME":"STARLINK-3708","LAUNCH_DATE":"2022-03-19","DECAY_DATE":null},{"OBJECT_TYPE":"PAYLOAD","TLE_LINE1":"1 52112U 22029AA  22203.91667824 -.00006193  00000-0 -37115-3 0  9999","TLE_LINE2":"2 52112  53.2138 270.7379 0001653  44.0475  79.8625 15.08855978  1306","REF_FRAME":"TEME","ARG_OF_PERICENTER":"44.0475","INCLINATION":"53.2138","PERIOD":"95.437","SEMIMAJOR_AXIS":"6917.832","MEAN_MOTION":"15.08855978","RCS_SIZE":"LARGE","MEAN_ANOMALY":"79.8625","MEAN_MOTION_DOT":"-0.00006193","CENTER_NAME":"EARTH","COUNTRY_CODE":"US","BSTAR":"-0.00037115000000","MEAN_MOTION_DDOT":"0.0000000000000","EPHEMERIS_TYPE":"0","NORAD_CAT_ID":"52112","ELEMENT_SET_NO":"999","CLASSIFICATION_TYPE":"U","GP_ID":"208671611","ECCENTRICITY":"0.00016530","FILE":"3519932","APOAPSIS":"540.840","PERIAPSIS":"538.553","SITE":"AFETR","TIME_SYSTEM":"UTC","OBJECT_NAME":"STARLINK-3734","LAUNCH_DATE":"2022-03-19","DECAY_DATE":null,"REV_AT_EPOCH":"130","EPOCH":"2022-07-22T22:00:00.999936","OBJECT_ID":"2022-029AA","RA_OF_ASC_NODE":"270.7379","MEAN_ELEMENT_THEORY":"SGP4"},{"OBJECT_TYPE":"PAYLOAD","TLE_LINE1":"1 52113U 22029AB  22203.91667824 -.00008157  00000-0 -49477-3 0  9996","TLE_LINE2":"2 52113  53.2170 270.7302 0001970  47.5983 156.3593 15.08853766  1301","SEMIMAJOR_AXIS":"6917.838","PERIOD":"95.437","INCLINATION":"53.2170","ARG_OF_PERICENTER":"47.5983","REF_FRAME":"TEME","RCS_SIZE":"LARGE","MEAN_ANOMALY":"156.3593","MEAN_MOTION":"15.08853766","EPHEMERIS_TYPE":"0","NORAD_CAT_ID":"52113","MEAN_MOTION_DDOT":"0.0000000000000","COUNTRY_CODE":"US","BSTAR":"-0.00049477000000","CENTER_NAME":"EARTH","MEAN_MOTION_DOT":"-0.00008157","FILE":"3519932","APOAPSIS":"541.066","ELEMENT_SET_NO":"999","CLASSIFICATION_TYPE":"U","GP_ID":"208672362","ECCENTRICITY":"0.00019700","SITE":"AFETR","TIME_SYSTEM":"UTC","PERIAPSIS":"538.340","DECAY_DATE":null,"OBJECT_NAME":"STARLINK-3736","LAUNCH_DATE":"2022-03-19","MEAN_ELEMENT_THEORY":"SGP4","OBJECT_ID":"2022-029AB","RA_OF_ASC_NODE":"270.7302","EPOCH":"2022-07-22T22:00:00.999936","REV_AT_EPOCH":"130"},{"ELEMENT_SET_NO":"999","CLASSIFICATION_TYPE":"U","GP_ID":"208672112","ECCENTRICITY":"0.00017580","FILE":"3519932","APOAPSIS":"540.944","PERIAPSIS":"538.511","SITE":"AFETR","TIME_SYSTEM":"UTC","LAUNCH_DATE":"2022-03-19","OBJECT_NAME":"STARLINK-3737","DECAY_DATE":null,"OBJECT_ID":"2022-029AC","RA_OF_ASC_NODE":"270.7373","REV_AT_EPOCH":"130","EPOCH":"2022-07-22T22:00:00.999936","MEAN_ELEMENT_THEORY":"SGP4","OBJECT_TYPE":"PAYLOAD","TLE_LINE2":"2 52114  53.2148 270.7373 0001758  42.9104 101.0362 15.08845879  1300","TLE_LINE1":"1 52114U 22029AC  22203.91667824 -.00006993  00000-0 -42160-3 0  9995","ARG_OF_PERICENTER":"42.9104","REF_FRAME":"TEME","SEMIMAJOR_AXIS":"6917.862","PERIOD":"95.437","INCLINATION":"53.2148","MEAN_MOTION":"15.08845879","RCS_SIZE":"LARGE","MEAN_ANOMALY":"101.0362","COUNTRY_CODE":"US","BSTAR":"-0.00042160000000","CENTER_NAME":"EARTH","MEAN_MOTION_DOT":"-0.00006993","EPHEMERIS_TYPE":"0","NORAD_CAT_ID":"52114","MEAN_MOTION_DDOT":"0.0000000000000"},{"TLE_LINE2":"2 52115  53.2169 270.7280 0001719  55.7377 188.3083 15.08848695  1309","TLE_LINE1":"1 52115U 22029AD  22203.91667824 -.00013498  00000-0 -83133-3 0  9999","OBJECT_TYPE":"PAYLOAD","ARG_OF_PERICENTER":"55.7377","REF_FRAME":"TEME","SEMIMAJOR_AXIS":"6917.854","INCLINATION":"53.2169","PERIOD":"95.437","MEAN_MOTION":"15.08848695","MEAN_ANOMALY":"188.3083","RCS_SIZE":"LARGE","BSTAR":"-0.00083133000000","COUNTRY_CODE":"US","CENTER_NAME":"EARTH","MEAN_MOTION_DOT":"-0.00013498","NORAD_CAT_ID":"52115","EPHEMERIS_TYPE":"0","MEAN_MOTION_DDOT":"0.0000000000000","ECCENTRICITY":"0.00017190","GP_ID":"208672845","ELEMENT_SET_NO":"999","CLASSIFICATION_TYPE":"U","APOAPSIS":"540.908","FILE":"3519932","PERIAPSIS":"538.530","TIME_SYSTEM":"UTC","SITE":"AFETR","OBJECT_NAME":"STARLINK-3685","LAUNCH_DATE":"2022-03-19","DECAY_DATE":null,"OBJECT_ID":"2022-029AD","RA_OF_ASC_NODE":"270.7280","EPOCH":"2022-07-22T22:00:00.999936","REV_AT_EPOCH":"130","MEAN_ELEMENT_THEORY":"SGP4"},{"MEAN_ELEMENT_THEORY":"SGP4","REV_AT_EPOCH":"130","EPOCH":"2022-07-22T22:00:00.999936","OBJECT_ID":"2022-029AE","RA_OF_ASC_NODE":"270.7302","DECAY_DATE":null,"LAUNCH_DATE":"2022-03-19","OBJECT_NAME":"STARLINK-3735","SITE":"AFETR","TIME_SYSTEM":"UTC","PERIAPSIS":"538.466","APOAPSIS":"541.000","FILE":"3519932","ELEMENT_SET_NO":"999","CLASSIFICATION_TYPE":"U","ECCENTRICITY":"0.00018320","GP_ID":"208671111","MEAN_MOTION_DDOT":"0.0000000000000","EPHEMERIS_TYPE":"0","NORAD_CAT_ID":"52116","CENTER_NAME":"EARTH","MEAN_MOTION_DOT":"-0.00007965","COUNTRY_CODE":"US","BSTAR":"-0.00048284000000","RCS_SIZE":"LARGE","MEAN_ANOMALY":"144.5841","MEAN_MOTION":"15.08844063","INCLINATION":"53.2158","PERIOD":"95.437","SEMIMAJOR_AXIS":"6917.868","ARG_OF_PERICENTER":"39.3383","REF_FRAME":"TEME","OBJECT_TYPE":"PAYLOAD","TLE_LINE2":"2 52116  53.2158 270.7302 0001832  39.3383 144.5841 15.08844063  1305","TLE_LINE1":"1 52116U 22029AE  22203.91667824 -.00007965  00000-0 -48284-3 0  9990"},{"CLASSIFICATION_TYPE":"U","ELEMENT_SET_NO":"999","GP_ID":"208671862","ECCENTRICITY":"0.00017670","FILE":"3519932","APOAPSIS":"540.960","PERIAPSIS":"538.515","SITE":"AFETR","TIME_SYSTEM":"UTC","LAUNCH_DATE":"2022-03-19","OBJECT_NAME":"STARLINK-3738","DECAY_DATE":null,"REV_AT_EPOCH":"130","EPOCH":"2022-07-22T22:00:00.999936","OBJECT_ID":"2022-029AF","RA_OF_ASC_NODE":"270.7293","MEAN_ELEMENT_THEORY":"SGP4","OBJECT_TYPE":"PAYLOAD","TLE_LINE2":"2 52117  53.2160 270.7293 0001767  48.2717 235.7547 15.08842671  1304","TLE_LINE1":"1 52117U 22029AF  22203.91667824 -.00009437  00000-0 -57556-3 0  9999","ARG_OF_PERICENTER":"48.2717","REF_FRAME":"TEME","PERIOD":"95.437","INCLINATION":"53.2160","SEMIMAJOR_AXIS":"6917.872","MEAN_MOTION":"15.08842671","RCS_SIZE":"LARGE","MEAN_ANOMALY":"235.7547","MEAN_MOTION_DOT":"-0.00009437","CENTER_NAME":"EARTH","COUNTRY_CODE":"US","BSTAR":"-0.00057556000000","MEAN_MOTION_DDOT":"0.0000000000000","EPHEMERIS_TYPE":"0","NORAD_CAT_ID":"52117"},{"MEAN_MOTION":"15.08855159","MEAN_ANOMALY":"175.4134","RCS_SIZE":"LARGE","MEAN_MOTION_DOT":"-0.00008907","CENTER_NAME":"EARTH","BSTAR":"-0.00054194000000","COUNTRY_CODE":"US","MEAN_MOTION_DDOT":"0.0000000000000","NORAD_CAT_ID":"52118","EPHEMERIS_TYPE":"0","TLE_LINE1":"1 52118U 22029AG  22203.91667824 -.00008907  00000-0 -54194-3 0  9996","TLE_LINE2":"2 52118  53.2171 270.7298 0001877  48.5386 175.4134 15.08855159  1306","OBJECT_TYPE":"PAYLOAD","REF_FRAME":"TEME","ARG_OF_PERICENTER":"48.5386","PERIOD":"95.437","INCLINATION":"53.2171","SEMIMAJOR_AXIS":"6917.834","LAUNCH_DATE":"2022-03-19","OBJECT_NAME":"STARLINK-3743","DECAY_DATE":null,"EPOCH":"2022-07-22T22:00:00.999936","REV_AT_EPOCH":"130","RA_OF_ASC_NODE":"270.7298","OBJECT_ID":"2022-029AG","MEAN_ELEMENT_THEORY":"SGP4","GP_ID":"208672613","ECCENTRICITY":"0.00018770","ELEMENT_SET_NO":"999","CLASSIFICATION_TYPE":"U","APOAPSIS":"540.998","FILE":"3519932","PERIAPSIS":"538.401","TIME_SYSTEM":"UTC","SITE":"AFETR"}];
